{"type": "FeatureCollection", "features": [{"type": "Feature", "properties": {"norad_id": 28054, "name": "DMSP 5D-3 F16 (USA 172)", "group": "weather", "lat": -13.628939342305474, "lon": -178.59069468807718, "alt_km": 851.7492276971079, "timestamp": "2025-12-12T03:50:52.058927+00:00", "meta": {"OBJECT_NAME": "DMSP 5D-3 F16 (USA 172)", "OBJECT_ID": "2003-048A", "EPOCH": "2025-12-11T12:23:16.326816", "MEAN_MOTION": 14.14423643, "ECCENTRICITY": 0.00065387, "INCLINATION": 99.0048, "RA_OF_ASC_NODE": 2.9635, "ARG_OF_PERICENTER": 324.7448, "MEAN_ANOMALY": 190.7885, "EPHEMERIS_TYPE": 0, "CLASSIFICATION_TYPE": "U", "NORAD_CAT_ID": 28054, "ELEMENT_SET_NO": 999, "REV_AT_EPOCH": 14295, "BSTAR": 0.00013937036, "MEAN_MOTION_DOT": 2.21e-06, "MEAN_MOTION_DDOT": 0}, "tle": {"line1": "1 28054U 03048A   25345.51616119  .00000221  00000+0  13937-3 0  9993", "line2": "2 28054  99.0048   2.9635 0006538 324.7448 190.7885 14.14423643142951"}}, "geometry": {"type": "Point", "coordinates": [-178.59069468807718, -13.628939342305474]}}, {"type": "Feature", "properties": {"norad_id": 28912, "name": "METEOSAT-9 (MSG-2)", "group": "weather", "lat": 6.984292565652172, "lon": -175.1963239379535, "alt_km": 35776.62046865049, "timestamp": "2025-12-12T03:50:52.058978+00:00", "meta": {"OBJECT_NAME": "METEOSAT-9 (MSG-2)", "OBJECT_ID": "2005-049B", "EPOCH": "2025-12-10T20:37:31.694304", "MEAN_MOTION": 1.00275463, "ECCENTRICITY": 0.0003704, "INCLINATION": 8.9357, "RA_OF_ASC_NODE": 55.9949, "ARG_OF_PERICENTER": 190.2808, "MEAN_ANOMALY": 188.5842, "EPHEMERIS_TYPE": 0, "CLASSIFICATION_TYPE": "U", "NORAD_CAT_ID": 28912, "ELEMENT_SET_NO": 999, "REV_AT_EPOCH": 511, "BSTAR": 0, "MEAN_MOTION_DOT": 1.27e-06, "MEAN_MOTION_DDOT": 0}, "tle": {"line1": "1 28912U 05049B   25344.85939461  .00000127  00000+0  00000+0 0  9991", "line2": "2 28912   8.9357  55.9949 0003704 190.2808 188.5842  1.00275463  5110"}}, "geometry": {"type": "Point", "coordinates": [-175.1963239379535, 6.984292565652172]}}, {"type": "Feature", "properties": {"norad_id": 29522, "name": "DMSP 5D-3 F17 (USA 191)", "group": "weather", "lat": 46.22279054795257, "lon": -179.2007661141082, "alt_km": 838.9503513536811, "timestamp": "2025-12-12T03:50:52.058996+00:00", "meta": {"OBJECT_NAME": "DMSP 5D-3 F17 (USA 191)", "OBJECT_ID": "2006-050A", "EPOCH": "2025-12-11T13:38:35.487456", "MEAN_MOTION": 14.14918695, "ECCENTRICITY": 0.0009358, "INCLINATION": 98.7394, "RA_OF_ASC_NODE": 350.9819, "ARG_OF_PERICENTER": 228.5123, "MEAN_ANOMALY": 131.5248, "EPHEMERIS_TYPE": 0, "CLASSIFICATION_TYPE": "U", "NORAD_CAT_ID": 29522, "ELEMENT_SET_NO": 999, "REV_AT_EPOCH": 98588, "BSTAR": 0.00015885627, "MEAN_MOTION_DOT": 2.64e-06, "MEAN_MOTION_DDOT": 0}, "tle": {"line1": "1 29522U 06050A   25345.56846629  .00000264  00000+0  15886-3 0  9998", "line2": "2 29522  98.7394 350.9819 0009358 228.5123 131.5248 14.14918695985885"}}, "geometry": {"type": "Point", "coordinates": [-179.2007661141082, 46.22279054795257]}}, {"type": "Feature", "properties": {"norad_id": 32958, "name": "FENGYUN 3A", "group": "weather", "lat": -17.374992472185305, "lon": 102.9628263775044, "alt_km": 834.2816523966267, "timestamp": "2025-12-12T03:50:52.059010+00:00", "meta": {"OBJECT_NAME": "FENGYUN 3A", "OBJECT_ID": "2008-026A", "EPOCH": "2025-12-11T13:23:10.858848", "MEAN_MOTION": 14.19514062, "ECCENTRICITY": 0.00079524, "INCLINATION": 98.6697, "RA_OF_ASC_NODE": 285.1095, "ARG_OF_PERICENTER": 314.0975, "MEAN_ANOMALY": 45.9546, "EPHEMERIS_TYPE": 0, "CLASSIFICATION_TYPE": "U", "NORAD_CAT_ID": 32958, "ELEMENT_SET_NO": 999, "REV_AT_EPOCH": 90878, "BSTAR": 0.00012045508, "MEAN_MOTION_DOT": 2.11e-06, "MEAN_MOTION_DDOT": 0}, "tle": {"line1": "1 32958U 08026A   25345.55776457  .00000211  00000+0  12046-3 0  9997", "line2": "2 32958  98.6697 285.1095 0007952 314.0975  45.9546 14.19514062908784"}}, "geometry": {"type": "Point", "coordinates": [102.9628263775044, -17.374992472185305]}}, {"type": "Feature", "properties": {"norad_id": 35491, "name": "GOES 14", "group": "weather", "lat": -0.9803002142646623, "lon": 29.47304406082758, "alt_km": 35838.978851069274, "timestamp": "2025-12-12T03:50:52.059024+00:00", "meta": {"OBJECT_NAME": "GOES 14", "OBJECT_ID": "2009-033A", "EPOCH": "2025-12-11T11:16:48.751680", "MEAN_MOTION": 1.00103386, "ECCENTRICITY": 0.00014146, "INCLINATION": 1.1994, "RA_OF_ASC_NODE": 85.4084, "ARG_OF_PERICENTER": 147.048, "MEAN_ANOMALY": 268.2325, "EPHEMERIS_TYPE": 0, "CLASSIFICATION_TYPE": "U", "NORAD_CAT_ID": 35491, "ELEMENT_SET_NO": 999, "REV_AT_EPOCH": 471, "BSTAR": 0, "MEAN_MOTION_DOT": -3.2e-07, "MEAN_MOTION_DDOT": 0}, "tle": {"line1": "1 35491U 09033A   25345.47000870 -.00000032  00000+0  00000+0 0  9996", "line2": "2 35491   1.1994  85.4084 0001414 147.0480 268.2325  1.00103386  4713"}}, "geometry": {"type": "Point", "coordinates": [29.47304406082758, -0.9803002142646623]}}, {"type": "Feature", "properties": {"norad_id": 35951, "name": "DMSP 5D-3 F18 (USA 210)", "group": "weather", "lat": 0.5592747735968292, "lon": -37.52356217531415, "alt_km": 842.0231743265895, "timestamp": "2025-12-12T03:50:52.059036+00:00", "meta": {"OBJECT_NAME": "DMSP 5D-3 F18 (USA 210)", "OBJECT_ID": "2009-057A", "EPOCH": "2025-12-11T14:15:59.170176", "MEAN_MOTION": 14.14768156, "ECCENTRICITY": 0.00120681, "INCLINATION": 98.8834, "RA_OF_ASC_NODE": 322.0009, "ARG_OF_PERICENTER": 65.7399, "MEAN_ANOMALY": 294.5033, "EPHEMERIS_TYPE": 0, "CLASSIFICATION_TYPE": "U", "NORAD_CAT_ID": 35951, "ELEMENT_SET_NO": 999, "REV_AT_EPOCH": 83306, "BSTAR": 0.00023410018, "MEAN_MOTION_DOT": 4.07e-06, "MEAN_MOTION_DDOT": 0}, "tle": {"line1": "1 35951U 09057A   25345.59443484  .00000407  00000+0  23410-3 0  9997", "line2": "2 35951  98.8834 322.0009 0012068  65.7399 294.5033 14.14768156833066"}}, "geometry": {"type": "Point", "coordinates": [-37.52356217531415, 0.5592747735968292]}}, {"type": "Feature", "properties": {"norad_id": 36411, "name": "EWS-G2 (GOES 15)", "group": "weather", "lat": 0.7289894849156572, "lon": -159.82065111794927, "alt_km": 35774.448629840765, "timestamp": "2025-12-12T03:50:52.059050+00:00", "meta": {"OBJECT_NAME": "EWS-G2 (GOES 15)", "OBJECT_ID": "2010-008A", "EPOCH": "2025-12-11T15:03:13.121280", "MEAN_MOTION": 1.00269515, "ECCENTRICITY": 0.00057963, "INCLINATION": 0.8115, "RA_OF_ASC_NODE": 86.0579, "ARG_OF_PERICENTER": 174.5048, "MEAN_ANOMALY": 107.2429, "EPHEMERIS_TYPE": 0, "CLASSIFICATION_TYPE": "U", "NORAD_CAT_ID": 36411, "ELEMENT_SET_NO": 999, "REV_AT_EPOCH": 5775, "BSTAR": 0, "MEAN_MOTION_DOT": 4.6e-07, "MEAN_MOTION_DDOT": 0}, "tle": {"line1": "1 36411U 10008A   25345.62723520  .00000046  00000+0  00000+0 0  9998", "line2": "2 36411   0.8115  86.0579 0005796 174.5048 107.2429  1.00269515 57751"}}, "geometry": {"type": "Point", "coordinates": [-159.82065111794927, 0.7289894849156572]}}, {"type": "Feature", "properties": {"norad_id": 36744, "name": "COMS 1", "group": "weather", "lat": -0.6957488235635612, "lon": -93.03292162966177, "alt_km": 35782.43636014356, "timestamp": "2025-12-12T03:50:52.059063+00:00", "meta": {"OBJECT_NAME": "COMS 1", "OBJECT_ID": "2010-032A", "EPOCH": "2025-12-11T14:07:19.055136", "MEAN_MOTION": 1.0027057, "ECCENTRICITY": 0.00010641, "INCLINATION": 4.3387, "RA_OF_ASC_NODE": 78.01, "ARG_OF_PERICENTER": 211.1746, "MEAN_ANOMALY": 131.3634, "EPHEMERIS_TYPE": 0, "CLASSIFICATION_TYPE": "U", "NORAD_CAT_ID": 36744, "ELEMENT_SET_NO": 999, "REV_AT_EPOCH": 4920, "BSTAR": 0, "MEAN_MOTION_DOT": -3.37e-06, "MEAN_MOTION_DDOT": 0}, "tle": {"line1": "1 36744U 10032A   25345.58841499 -.00000337  00000+0  00000+0 0  9999", "line2": "2 36744   4.3387  78.0100 0001064 211.1746 131.3634  1.00270570 49208"}}, "geometry": {"type": "Point", "coordinates": [-93.03292162966177, -0.6957488235635612]}}, {"type": "Feature", "properties": {"norad_id": 37214, "name": "FENGYUN 3B", "group": "weather", "lat": -34.43232746261609, "lon": 32.36363184777545, "alt_km": 835.9515068941846, "timestamp": "2025-12-12T03:50:52.059076+00:00", "meta": {"OBJECT_NAME": "FENGYUN 3B", "OBJECT_ID": "2010-059A", "EPOCH": "2025-12-11T13:28:48.631008", "MEAN_MOTION": 14.14790615, "ECCENTRICITY": 0.00221318, "INCLINATION": 98.9905, "RA_OF_ASC_NODE": 25.5302, "ARG_OF_PERICENTER": 1.104, "MEAN_ANOMALY": 156.836, "EPHEMERIS_TYPE": 0, "CLASSIFICATION_TYPE": "U", "NORAD_CAT_ID": 37214, "ELEMENT_SET_NO": 999, "REV_AT_EPOCH": 78089, "BSTAR": 0.00033260977, "MEAN_MOTION_DOT": 5.97e-06, "MEAN_MOTION_DDOT": 0}, "tle": {"line1": "1 37214U 10059A   25345.56167397  .00000597  00000+0  33261-3 0  9993", "line2": "2 37214  98.9905  25.5302 0022131   1.1040 156.8360 14.14790615780890"}}, "geometry": {"type": "Point", "coordinates": [32.36363184777545, -34.43232746261609]}}, {"type": "Feature", "properties": {"norad_id": 37849, "name": "SUOMI NPP", "group": "weather", "lat": 23.30942187553858, "lon": 107.32384295083418, "alt_km": 825.1753645484041, "timestamp": "2025-12-12T03:50:52.059087+00:00", "meta": {"OBJECT_NAME": "SUOMI NPP", "OBJECT_ID": "2011-061A", "EPOCH": "2025-12-11T15:16:20.581248", "MEAN_MOTION": 14.19513693, "ECCENTRICITY": 0.00022095, "INCLINATION": 98.7772, "RA_OF_ASC_NODE": 282.9878, "ARG_OF_PERICENTER": 122.2573, "MEAN_ANOMALY": 237.8817, "EPHEMERIS_TYPE": 0, "CLASSIFICATION_TYPE": "U", "NORAD_CAT_ID": 37849, "ELEMENT_SET_NO": 999, "REV_AT_EPOCH": 73183, "BSTAR": 0.00010729572, "MEAN_MOTION_DOT": 1.82e-06, "MEAN_MOTION_DDOT": 0}, "tle": {"line1": "1 37849U 11061A   25345.63634932  .00000182  00000+0  10730-3 0  9999", "line2": "2 37849  98.7772 282.9878 0002209 122.2573 237.8817 14.19513693731832"}}, "geometry": {"type": "Point", "coordinates": [107.32384295083418, 23.30942187553858]}}]}